CCSDS_OMM_VERS = 2.0
CREATION_DATE  = 
ORIGINATOR     = 

OBJECT_NAME    = PROGRESS-MS 32
OBJECT_ID      = 2025-204A
CENTER_NAME    = EARTH
REF_FRAME      = TEME
TIME_SYSTEM    = UTC
MEAN_ELEMENT_THEORY = SGP/SGP4

EPOCH          = 2025-11-20T05:19:55.100064
MEAN_MOTION    = 15.48916399
ECCENTRICITY   = .00040002
INCLINATION    = 51.6325
RA_OF_ASC_NODE = 253.9268
ARG_OF_PERICENTER = 147.6792
MEAN_ANOMALY   = 212.4442

EPHEMERIS_TYPE = 0
CLASSIFICATION_TYPE = U
NORAD_CAT_ID   = 65586
ELEMENT_SET_NO = 999
REV_AT_EPOCH   = 27
BSTAR          = .2801144E-3
MEAN_MOTION_DOT = .14969E-3
MEAN_MOTION_DDOT = 0

CCSDS_OMM_VERS = 2.0
CREATION_DATE  = 
ORIGINATOR     = 

OBJECT_NAME    = CYGNUS NG-23
OBJECT_ID      = 2025-208A
CENTER_NAME    = EARTH
REF_FRAME      = TEME
TIME_SYSTEM    = UTC
MEAN_ELEMENT_THEORY = SGP/SGP4

EPOCH          = 2025-11-20T05:19:55.100064
MEAN_MOTION    = 15.48916399
ECCENTRICITY   = .00040002
INCLINATION    = 51.6325
RA_OF_ASC_NODE = 253.9268
ARG_OF_PERICENTER = 147.6792
MEAN_ANOMALY   = 212.4442

EPHEMERIS_TYPE = 0
CLASSIFICATION_TYPE = U
NORAD_CAT_ID   = 65616
ELEMENT_SET_NO = 999
REV_AT_EPOCH   = 22
BSTAR          = .2801144E-3
MEAN_MOTION_DOT = .14969E-3
MEAN_MOTION_DDOT = 0

CCSDS_OMM_VERS = 2.0
CREATION_DATE  = 
ORIGINATOR     = 

OBJECT_NAME    = DRAGONFLY
OBJECT_ID      = 1998-067XH
CENTER_NAME    = EARTH
REF_FRAME      = TEME
TIME_SYSTEM    = UTC
MEAN_ELEMENT_THEORY = SGP/SGP4

EPOCH          = 2025-11-20T04:13:13.782144
MEAN_MOTION    = 15.64652967
ECCENTRICITY   = .00057387
INCLINATION    = 51.6286
RA_OF_ASC_NODE = 250.6184
ARG_OF_PERICENTER = 155.2518
MEAN_ANOMALY   = 204.8753

EPHEMERIS_TYPE = 0
CLASSIFICATION_TYPE = U
NORAD_CAT_ID   = 65729
ELEMENT_SET_NO = 999
REV_AT_EPOCH   = 962
BSTAR          = .1076358E-2
MEAN_MOTION_DOT = .107287E-2
MEAN_MOTION_DDOT = 0

CCSDS_OMM_VERS = 2.0
CREATION_DATE  = 
ORIGINATOR     = 

OBJECT_NAME    = 1998-067XJ
OBJECT_ID      = 1998-067XJ
CENTER_NAME    = EARTH
REF_FRAME      = TEME
TIME_SYSTEM    = UTC
MEAN_ELEMENT_THEORY = SGP/SGP4

EPOCH          = 2025-11-20T04:24:02.993472
MEAN_MOTION    = 15.84439421
ECCENTRICITY   = .00121781
INCLINATION    = 51.6225
RA_OF_ASC_NODE = 247.6377
ARG_OF_PERICENTER = 153.1185
MEAN_ANOMALY   = 207.0452

EPHEMERIS_TYPE = 0
CLASSIFICATION_TYPE = U
NORAD_CAT_ID   = 65730
ELEMENT_SET_NO = 999
REV_AT_EPOCH   = 966
BSTAR          = .23536064E-2
MEAN_MOTION_DOT = .590274E-2
MEAN_MOTION_DDOT = 0

CCSDS_OMM_VERS = 2.0
CREATION_DATE  = 
ORIGINATOR     = 

OBJECT_NAME    = 1998-067XK
OBJECT_ID      = 1998-067XK
CENTER_NAME    = EARTH
REF_FRAME      = TEME
TIME_SYSTEM    = UTC
MEAN_ELEMENT_THEORY = SGP/SGP4

EPOCH          = 2025-11-20T04:02:22.455744
MEAN_MOTION    = 15.61157875
ECCENTRICITY   = .00060174
INCLINATION    = 51.6311
RA_OF_ASC_NODE = 251.3233
ARG_OF_PERICENTER = 130.1607
MEAN_ANOMALY   = 229.9914

EPHEMERIS_TYPE = 0
CLASSIFICATION_TYPE = U
NORAD_CAT_ID   = 65731
ELEMENT_SET_NO = 999
REV_AT_EPOCH   = 961
BSTAR          = .83778577E-3
MEAN_MOTION_DOT = .72372E-3
MEAN_MOTION_DDOT = 0

CCSDS_OMM_VERS = 2.0
CREATION_DATE  = 
ORIGINATOR     = 

OBJECT_NAME    = RSP-03
OBJECT_ID      = 1998-067XL
CENTER_NAME    = EARTH
REF_FRAME      = TEME
TIME_SYSTEM    = UTC
MEAN_ELEMENT_THEORY = SGP/SGP4

EPOCH          = 2025-11-20T04:55:04.984320
MEAN_MOTION    = 15.62832055
ECCENTRICITY   = .00067685
INCLINATION    = 51.6298
RA_OF_ASC_NODE = 250.8143
ARG_OF_PERICENTER = 132.4175
MEAN_ANOMALY   = 227.7392

EPHEMERIS_TYPE = 0
CLASSIFICATION_TYPE = U
NORAD_CAT_ID   = 65732
ELEMENT_SET_NO = 999
REV_AT_EPOCH   = 963
BSTAR          = .11068717E-2
MEAN_MOTION_DOT = .102651E-2
MEAN_MOTION_DDOT = 0

CCSDS_OMM_VERS = 2.0
CREATION_DATE  = 
ORIGINATOR     = 

OBJECT_NAME    = GHS-01
OBJECT_ID      = 1998-067XM
CENTER_NAME    = EARTH
REF_FRAME      = TEME
TIME_SYSTEM    = UTC
MEAN_ELEMENT_THEORY = SGP/SGP4

EPOCH          = 2025-11-20T05:16:24.033504
MEAN_MOTION    = 15.66007224
ECCENTRICITY   = .00063414
INCLINATION    = 51.6298
RA_OF_ASC_NODE = 250.1647
ARG_OF_PERICENTER = 153.3028
MEAN_ANOMALY   = 206.8295

EPHEMERIS_TYPE = 0
CLASSIFICATION_TYPE = U
NORAD_CAT_ID   = 65733
ELEMENT_SET_NO = 999
REV_AT_EPOCH   = 964
BSTAR          = .13849624E-2
MEAN_MOTION_DOT = .146631E-2
MEAN_MOTION_DDOT = 0

CCSDS_OMM_VERS = 2.0
CREATION_DATE  = 
ORIGINATOR     = 

OBJECT_NAME    = YOTSUBA-KULOVER
OBJECT_ID      = 1998-067XN
CENTER_NAME    = EARTH
REF_FRAME      = TEME
TIME_SYSTEM    = UTC
MEAN_ELEMENT_THEORY = SGP/SGP4

EPOCH          = 2025-11-20T04:38:34.129248
MEAN_MOTION    = 15.56036718
ECCENTRICITY   = .00025006
INCLINATION    = 51.6312
RA_OF_ASC_NODE = 252.9866
ARG_OF_PERICENTER = 100.2515
MEAN_ANOMALY   = 259.8759

EPHEMERIS_TYPE = 0
CLASSIFICATION_TYPE = U
NORAD_CAT_ID   = 65941
ELEMENT_SET_NO = 999
REV_AT_EPOCH   = 634
BSTAR          = .8964255E-3
MEAN_MOTION_DOT = .63676E-3
MEAN_MOTION_DDOT = 0

CCSDS_OMM_VERS = 2.0
CREATION_DATE  = 
ORIGINATOR     = 

OBJECT_NAME    = BOTAN
OBJECT_ID      = 1998-067XP
CENTER_NAME    = EARTH
REF_FRAME      = TEME
TIME_SYSTEM    = UTC
MEAN_ELEMENT_THEORY = SGP/SGP4

EPOCH          = 2025-11-20T04:07:18.672096
MEAN_MOTION    = 15.57884657
ECCENTRICITY   = .00046861
INCLINATION    = 51.6307
RA_OF_ASC_NODE = 252.8426
ARG_OF_PERICENTER = 107.1846
MEAN_ANOMALY   = 252.9659

EPHEMERIS_TYPE = 0
CLASSIFICATION_TYPE = U
NORAD_CAT_ID   = 65942
ELEMENT_SET_NO = 999
REV_AT_EPOCH   = 634
BSTAR          = .10467279E-2
MEAN_MOTION_DOT = .79956E-3
MEAN_MOTION_DDOT = 0

CCSDS_OMM_VERS = 2.0
CREATION_DATE  = 
ORIGINATOR     = 

OBJECT_NAME    = E-KAGAKU-1
OBJECT_ID      = 1998-067XQ
CENTER_NAME    = EARTH
REF_FRAME      = TEME
TIME_SYSTEM    = UTC
MEAN_ELEMENT_THEORY = SGP/SGP4

EPOCH          = 2025-11-20T00:00:35.822304
MEAN_MOTION    = 15.55994040
ECCENTRICITY   = .00040822
INCLINATION    = 51.6323
RA_OF_ASC_NODE = 253.9494
ARG_OF_PERICENTER = 87.0904
MEAN_ANOMALY   = 273.0554

EPHEMERIS_TYPE = 0
CLASSIFICATION_TYPE = U
NORAD_CAT_ID   = 65943
ELEMENT_SET_NO = 999
REV_AT_EPOCH   = 631
BSTAR          = .7661589E-3
MEAN_MOTION_DOT = .5421E-3
MEAN_MOTION_DDOT = 0

CCSDS_OMM_VERS = 2.0
CREATION_DATE  = 
ORIGINATOR     = 

OBJECT_NAME    = HRC MONOBLOCK CAMERA
OBJECT_ID      = 1998-067XR
CENTER_NAME    = EARTH
REF_FRAME      = TEME
TIME_SYSTEM    = UTC
MEAN_ELEMENT_THEORY = SGP/SGP4

EPOCH          = 2025-11-20T04:40:50.450304
MEAN_MOTION    = 15.52214639
ECCENTRICITY   = .00047425
INCLINATION    = 51.6320
RA_OF_ASC_NODE = 253.7437
ARG_OF_PERICENTER = 93.5606
MEAN_ANOMALY   = 266.5926

EPHEMERIS_TYPE = 0
CLASSIFICATION_TYPE = U
NORAD_CAT_ID   = 66052
ELEMENT_SET_NO = 999
REV_AT_EPOCH   = 533
BSTAR          = .5904687E-3
MEAN_MOTION_DOT = .36178E-3
MEAN_MOTION_DDOT = 0

CCSDS_OMM_VERS = 2.0
CREATION_DATE  = 
ORIGINATOR     = 

OBJECT_NAME    = HTV-X1
OBJECT_ID      = 2025-241A
CENTER_NAME    = EARTH
REF_FRAME      = TEME
TIME_SYSTEM    = UTC
MEAN_ELEMENT_THEORY = SGP/SGP4

EPOCH          = 2025-11-20T05:19:55.100064
MEAN_MOTION    = 15.48916399
ECCENTRICITY   = .00040002
INCLINATION    = 51.6325
RA_OF_ASC_NODE = 253.9268
ARG_OF_PERICENTER = 147.6792
MEAN_ANOMALY   = 212.4442

EPHEMERIS_TYPE = 0
CLASSIFICATION_TYPE = U
NORAD_CAT_ID   = 66174
ELEMENT_SET_NO = 999
REV_AT_EPOCH   = 145
BSTAR          = .2801144E-3
MEAN_MOTION_DOT = .14969E-3
MEAN_MOTION_DDOT = 0

